[{"OBJECT_NAME":"WILDFIRE 10","OBJECT_ID":"2023-133K","EPOCH":"2026-03-09T14:42:38.491200","MEAN_MOTION":13.85595388,"ECCENTRICITY":0.0005198,"INCLINATION":80.9995,"RA_OF_ASC_NODE":103.0888,"ARG_OF_PERICENTER":272.2038,"MEAN_ANOMALY":87.8523,"EPHEMERIS_TYPE":0,"CLASSIFICATION_TYPE":"U","NORAD_CAT_ID":57766,"ELEMENT_SET_NO":999,"REV_AT_EPOCH":12725,"BSTAR":6.2193e-5,"MEAN_MOTION_DOT":8.2e-7,"MEAN_MOTION_DDOT":0},{"OBJECT_NAME":"DELTA 1 R\/B","OBJECT_ID":"1978-026C","EPOCH":"2026-03-09T14:52:16.888224","MEAN_MOTION":13.88248585,"ECCENTRICITY":0.007207,"INCLINATION":98.8089,"RA_OF_ASC_NODE":285.7039,"ARG_OF_PERICENTER":205.6514,"MEAN_ANOMALY":154.1062,"EPHEMERIS_TYPE":0,"CLASSIFICATION_TYPE":"U","NORAD_CAT_ID":10704,"ELEMENT_SET_NO":999,"REV_AT_EPOCH":28376,"BSTAR":7.2895e-5,"MEAN_MOTION_DOT":4.8e-7,"MEAN_MOTION_DDOT":0}]
